{"fetched_at":"2026-03-29T16:36:15Z","count":15609,"tles":[{"name":"STARLINK-1171","line1":"1 45062U 20006U   26087.48902620  .00057181  00000+0  55585-3 0  9991","line2":"2 45062  53.0442 157.2303 0003611  29.0525 331.0691 15.65759077339934","category":"Starlink"}]}