{
  "norad_id": 45062,
  "name": "STARLINK-1171",
  "history": [
    {
      "epoch": "2026-03-28T11:44:11.863680Z",
      "apogee_km": 373.4942882827554,
      "perigee_km": 368.61880584822666,
      "latitude_deg": 7.867459530981593e-05,
      "longitude_deg": 155.27218487507915,
      "height_km": 369.8241428768249,
      "semi_major_axis_km": 6749.193547065491,
      "eccentricity": 0.00036119,
      "inclination_deg": 53.0442,
      "raan_deg": 157.2303,
      "arg_perigee_deg": 29.0525,
      "mean_anomaly_deg": 331.0691,
      "mean_motion_rev_day": 15.65759077
    }
  ]
}